0 OPS 6392 (FLTSATCOM 2)
1 11353U 79038A   13283.58167487  .00000000  00000-0  10000-3 0  4644
2 11353 015.0171 347.7978 0011856 314.8045 045.1127 00.98539643124735
0 OPS 6392 (FLTSATCOM 2)
1 11353U 79038A   13283.58168575 -.00000170  00000-0  10000-3 0  4631
2 11353 015.0169 347.7991 0011731 317.3992 042.5200 00.98543796124735
0 OPS 6392 (FLTSATCOM 2)
1 11353U 79038A   13285.61116272 -.00000113  00000-0  10000-3 0  4642
2 11353 015.0163 347.7789 0011696 316.8535 043.0594 00.98542812124753
0 OPS 6392 (FLTSATCOM 2)
1 11353U 79038A   13287.64065950 -.00000060  00000-0  10000-3 0  4655
2 11353 015.0157 347.7586 0011698 316.9028 043.0056 00.98542035124773
0 OPS 6392 (FLTSATCOM 2)
1 11353U 79038A   13289.67014200  .00000000  00000-0  10000-3 0  4688
2 11353 015.0155 347.7374 0011749 315.0845 044.8173 00.98537579124798
0 OPS 6392 (FLTSATCOM 2)
1 11353U 79038A   13289.67016339 -.00000020  00000-0  10000-3 0  4664
2 11353 015.0151 347.7382 0011749 316.3205 043.5825 00.98541654124796
0 OPS 6392 (FLTSATCOM 2)
1 11353U 79038A   13293.72918361 -.00000010  00000-0  10000-3 0  4671
2 11353 015.0142 347.6969 0011777 314.8108 045.0830 00.98542173124837
0 OPS 6392 (FLTSATCOM 2)
1 11353U 79038A   13295.75869340 -.00000041  00000-0  10000-3 0  4683
2 11353 015.0131 347.6766 0011849 313.9075 045.9885 00.98542988124858
